satname,norad_id,inclination_deg,eccentricity,mean_motion_rev_per_day,perigee_km,apogee_km,l1,l2
STARLINK-1309,45414,53.0611,0.0006121,15.65523227,367.6027890600835,375.86598161000984,1 45414U 20019BG  26129.46347785  .00035632  00000+0  35243-3 0  9992,2 45414  53.0611 187.3748 0006121 320.0383  40.0180 15.65523227339526
STARLINK-1316,45415,53.155,0.0005632,15.36071666,453.889237580036,461.58916853516075,1 45415U 20019BH  26129.50163833  .00029026  00000+0  82169-3 0  9997,2 45415  53.1550 205.6203 0005632 338.8865  21.1905 15.36071666339324
STARLINK-1286,45417,53.0458,0.0003093,15.55946217,397.3071940540567,401.4997805995172,1 45417U 20019BK  26129.47153375  .00034719  00000+0  49592-3 0  9993,2 45417  53.0458 197.5690 0003093 321.6058  38.4732 15.55946217339675
STARLINK-1308,45419,53.0486,0.000703,15.61984726,377.1722674434368,386.67691404001835,1 45419U 20019BM  26129.94560945  .00071402  00000+0  80160-3 0  9998,2 45419  53.0486 215.3795 0007030 309.8440  50.1954 15.61984726339212
STARLINK-1329,45531,53.0427,0.0005077,15.697048,356.320809889512,363.1624518512981,1 45531U 20025A   26129.75169215  .00042589  00000+0  35443-3 0  9992,2 45531  53.0427 141.6027 0005077  41.2256 318.9143 15.69704800335012
STARLINK-1338,45532,53.0436,0.0004502,15.65090514,369.9391028556902,376.0178072114022,1 45532U 20025B   26129.74919118  .00031365  00000+0  31654-3 0  9997,2 45532  53.0436 147.2025 0004502  19.5901 340.5286 15.65090514334935
STARLINK-1350,45535,53.072,0.000129,15.37603957,452.31570242869475,454.07818658637825,1 45535U 20025E   26129.65856019  .00012111  00000+0  33326-3 0  9996,2 45535  53.0720 106.4703 0001290  64.5289 295.5847 15.37603957335533
STARLINK-1362,45538,53.1585,0.0002816,15.3452655,460.4008580876134,464.2534074872001,1 45538U 20025H   26129.97538996 -.00121961  00000+0 -36418-2 0  9995,2 45538  53.1585 175.5052 0002816  46.3233 313.8003 15.34526550334573
STARLINK-1368,45540,53.1577,0.0003972,15.34911587,458.4665402277351,463.89969612961704,1 45540U 20025K   26129.91668981  .00047076  00000+0  13730-2 0  9994,2 45540  53.1577 176.1514 0003972  26.0319 293.1392 15.34911587  5878
STARLINK-1371,45542,53.0454,0.0006849,15.57390662,390.57309430067835,399.85122798160955,1 45542U 20025M   26129.78501689  .00065293  00000+0  87420-3 0  9991,2 45542  53.0454 155.2541 0006849  15.4845 344.6374 15.57390662334825
STARLINK-1372,45543,53.1567,0.0003838,15.35441697,456.98452091352465,462.23317462627256,1 45543U 20025N   26129.82741831  .00028267  00000+0  81700-3 0  9997,2 45543  53.1567 176.1754 0003838  19.5986 340.5164 15.35441697333648
STARLINK-1373,45544,53.0448,0.0004011,15.66772664,365.43947711137025,370.8513448614631,1 45544U 20025P   26129.35404265  .00038446  00000+0  36136-3 0  9996,2 45544  53.0448 154.7627 0004011 352.0909   8.0042 15.66772664334794
STARLINK-1327,45555,53.0416,0.0004962,15.64524058,371.2571966473879,377.9586206947515,1 45555U 20025AA  26129.28782626  .00056924  00000+0  58107-3 0  9993,2 45555  53.0416 131.7510 0004962 358.7125   1.3876 15.64524058335102
STARLINK-1356,45564,53.0466,0.0004188,15.54097215,401.9374993711144,407.61886912944374,1 45564U 20025AK  26129.74444314  .00045963  00000+0  69902-3 0  9999,2 45564  53.0466 141.0617 0004188   4.3422 355.7623 15.54097215335018
STARLINK-1357,45565,53.0453,0.0007964,15.66281527,364.1817572900991,374.92948209474616,1 45565U 20025AL  26129.18847907  .00046206  00000+0  44096-3 0  9991,2 45565  53.0453 102.5410 0007964  31.9063 328.2433 15.66281527335513
STARLINK-1361,45567,53.045,0.000236,15.57696491,392.72727117562863,395.92387350977424,1 45567U 20025AN  26129.89893350  .00063679  00000+0  84392-3 0  9990,2 45567  53.0450 138.9520 0002360   2.2906 357.8115 15.57696491335064
STARLINK-1363,45568,53.0323,0.0002042,15.98934181,276.0156285870771,278.733739558852,1 45568U 20025AP  26129.91668981  .00265902  40284-4  54404-3 0  9991,2 45568  53.0323  87.6202 0002042 113.5063  96.2284 15.98934181  5553
STARLINK-1366,45569,53.0332,0.000181,15.94359761,288.8919906979363,291.30589210872404,1 45569U 20025AQ  26129.91668981  .00207215  27676-4  54704-3 0  9998,2 45569  53.0332  89.3711 0001810  69.5891 304.9854 15.94359761  6014
STARLINK-1376,45570,53.1563,0.0005617,15.35722115,454.936160974853,462.6167495504951,1 45570U 20025AR  26129.35525440  .00029717  00000+0  85037-3 0  9999,2 45570  53.1563 154.8609 0005617  14.2993 345.8168 15.35722115334801
STARLINK-1320,45572,53.0454,0.000342,15.79698788,328.9987631605363,333.58801354617026,1 45572U 20025AT  26129.95147257  .00080974  00000+0  43238-3 0  9992,2 45572  53.0454  41.0058 0003420 192.1704 167.9235 15.79698788336459
STARLINK-1321,45573,53.0426,0.0005562,15.58964343,386.88839966797696,394.4180018873212,1 45573U 20025AU  26129.41497552  .00066764  00000+0  84258-3 0  9998,2 45573  53.0426 125.4277 0005562  27.4830 332.6475 15.58964343334903
STARLINK-1331,45578,53.0476,0.0007182,15.58471934,387.2165178550049,396.9412559549546,1 45578U 20025AZ  26129.94633985  .00062632  00000+0  80572-3 0  9998,2 45578  53.0476 129.6750 0007182   9.9122 350.2030 15.58471934335200
STARLINK-1333,45580,53.1576,0.0003408,15.32748658,465.2827501380034,469.9488152346821,1 45580U 20025BB  26129.80174305  .00028337  00000+0  89171-3 0  9990,2 45580  53.1576 153.6621 0003408  41.9061 318.2201 15.32748658334861
STARLINK-1335,45581,53.1544,0.0004362,15.34289272,460.0482488726948,466.0164850284227,1 45581U 20025BC  26129.33962326  .00030844  00000+0  92332-3 0  9996,2 45581  53.1544 152.8714 0004362  29.9416 330.1836 15.34289272334828
STARLINK-1337,45582,53.0466,0.0007578,15.70608915,352.0516219743231,362.25963147939,1 45582U 20025BD  26129.95736327  .00067209  00000+0  53399-3 0  9990,2 45582  53.0466 121.4384 0007578  19.4410 340.6894 15.70608915335309
STARLINK-1347,45586,53.0389,0.0004995,15.65528372,368.34804330199404,375.0911500420707,1 45586U 20025BH  26129.14640065  .00045040  00000+0  44356-3 0  9990,2 45586  53.0389  94.7959 0004995  48.8593 311.2852 15.65528372335608
STARLINK-1364,45589,53.0442,0.0005277,15.59955014,384.2167766578468,391.3575330108579,1 45589U 20025BL  26129.93980658  .00031369  00000+0  38631-3 0  9993,2 45589  53.0442 127.0774 0005277 353.2533   6.8407 15.59955014335228
STARLINK-1365,45590,53.0461,0.0005527,15.54745484,399.14470185048503,406.64045194478786,1 45590U 20025BM  26129.78873227  .00041532  00000+0  61778-3 0  9992,2 45590  53.0461 160.2923 0005527 349.8410  10.2488 15.54745484334768
STARLINK-1443,45660,53.1339,0.0004429,15.30303774,471.8700240641356,477.94044887720065,1 45660U 20035D   26129.74770184  .00023748  00000+0  80863-3 0  9990,2 45660  53.1339 142.1612 0004429  12.1608 347.9499 15.30303774328091
STARLINK-1446,45663,53.0221,0.0004613,15.45990338,425.3298257416991,431.6096010954989,1 45663U 20035G   26129.96874569  .00021158  00000+0  43434-3 0  9995,2 45663  53.0221  67.6643 0004613  88.0764 272.0770 15.45990338329149
STARLINK-1448,45665,53.0442,0.0007409,15.6498618,368.27638209408906,378.28062959064664,1 45665U 20035J   26129.93906761  .00037114  00000+0  37455-3 0  9999,2 45665  53.0442 114.8428 0007409  11.9756 348.1433 15.64986180328471
STARLINK-1451,45668,53.05,0.0002252,15.12955044,525.6387827070221,528.7489437278155,1 45668U 20035M   26129.91668981  .00049716  00000+0  27846-2 0  9992,2 45668  53.0500 148.9647 0002252  34.0667  27.3204 15.12955044  5807
STARLINK-1452,45669,53.0271,6.17e-05,15.54114534,404.3092890135258,405.14629452883037,1 45669U 20035N   26129.88677068  .00055641  00000+0  84334-3 0  9995,2 45669  53.0271  88.1146 0000617  63.6672 296.4401 15.54114534328857
STARLINK-1453,45670,53.0407,0.0003385,15.65335676,369.9885187100517,374.55854664067374,1 45670U 20035P   26129.91417549  .00042180  00000+0  41922-3 0  9997,2 45670  53.0407  75.3507 0003385  92.4899 267.6503 15.65335676328920
STARLINK-1454,45671,53.0436,0.0004069,15.62835149,376.7223541235526,382.2216963482897,1 45671U 20035Q   26129.91668981  .00139105  00000+0  14940-2 0  9999,2 45671  53.0436 115.8619 0004069   0.6689   5.1108 15.62835149  5953
STARLINK-1456,45673,53.0431,0.0007398,15.609501,379.90808516637844,389.9146915618021,1 45673U 20035S   26129.91859586  .00082896  00000+0  96606-3 0  9998,2 45673  53.0431 110.1110 0007398  44.1624 315.9978 15.60950100328558
STARLINK-1457,45674,53.0349,0.000147,16.0870285,249.42971043566195,251.37850152081955,1 45674U 20035T   26130.06940425  .00431199  10235-3  48730-3 0  9994,2 45674  53.0349  69.7041 0001470 174.4431 185.6619 16.08702850329091
STARLINK-1458,45675,53.0478,0.0006434,15.52232072,405.8429855777795,414.5782312803058,1 45675U 20035U   26129.96742859  .00072840  00000+0  11760-2 0  9994,2 45675  53.0478 122.5652 0006434   3.7182 356.3873 15.52232072328341
STARLINK-1460,45676,53.156,0.0004056,15.32587185,465.3197864139165,470.87345112546154,1 45676U 20035V   26129.31768120  .00016973  00000+0  54222-3 0  9999,2 45676  53.1560 143.0719 0004056  44.8285 315.3043 15.32587185328008
STARLINK-1392,45677,53.153,0.0003405,15.35721036,456.45168755774375,461.1076278016244,1 45677U 20035W   26129.72219549  .00040723  00000+0  11600-2 0  9993,2 45677  53.1530 140.4924 0003405  49.8545 310.2756 15.35721036328111
STARLINK-1394,45679,53.0418,0.0008719,15.60826987,379.3700033615023,391.164027283422,1 45679U 20035Y   26129.91655793  .00060766  00000+0  71474-3 0  9996,2 45679  53.0418 100.3501 0008719  47.9673 312.2080 15.60826987328680
STARLINK-1402,45685,53.0416,0.0007751,15.54229018,399.1375649590318,409.65184560856324,1 45685U 20035AE  26129.15011803  .00061964  00000+0  93271-3 0  9997,2 45685  53.0416  93.3995 0007751  66.1050 294.0771 15.54229018328724
STARLINK-1404,45686,53.1582,0.0004602,15.41414195,438.7960735117176,445.07326747724073,1 45686U 20035AF  26129.69855184  .00043644  00000+0  10317-2 0  9999,2 45686  53.1582 123.4694 0004602  57.8836 302.2616 15.41414195328359
